CCSDS_OMM_VERS = 2.0
CREATION_DATE  = 
ORIGINATOR     = 

OBJECT_NAME    = STARLINK-37165
OBJECT_ID      = 2026-055AB
CENTER_NAME    = EARTH
REF_FRAME      = TEME
TIME_SYSTEM    = UTC
MEAN_ELEMENT_THEORY = SGP/SGP4

EPOCH          = 2026-04-01T20:00:01.999008
MEAN_MOTION    = 15.85936877
ECCENTRICITY   = .0000788
INCLINATION    = 53.1572
RA_OF_ASC_NODE = 221.1074
ARG_OF_PERICENTER = 60.4890
MEAN_ANOMALY   = 336.4897

EPHEMERIS_TYPE = 0
CLASSIFICATION_TYPE = U
NORAD_CAT_ID   = 68287
ELEMENT_SET_NO = 999
REV_AT_EPOCH   = 335
BSTAR          = -.68947E-2
MEAN_MOTION_DOT = -.1526396E-1
MEAN_MOTION_DDOT = 0

CCSDS_OMM_VERS = 2.0
CREATION_DATE  = 
ORIGINATOR     = 

OBJECT_NAME    = STARLINK-37016
OBJECT_ID      = 2026-055AC
CENTER_NAME    = EARTH
REF_FRAME      = TEME
TIME_SYSTEM    = UTC
MEAN_ELEMENT_THEORY = SGP/SGP4

EPOCH          = 2026-04-01T20:00:01.999008
MEAN_MOTION    = 15.85940713
ECCENTRICITY   = .0000925
INCLINATION    = 53.1569
RA_OF_ASC_NODE = 221.1264
ARG_OF_PERICENTER = 59.2516
MEAN_ANOMALY   = 328.7402

EPHEMERIS_TYPE = 0
CLASSIFICATION_TYPE = U
NORAD_CAT_ID   = 68288
ELEMENT_SET_NO = 999
REV_AT_EPOCH   = 335
BSTAR          = -.68582E-2
MEAN_MOTION_DOT = -.1519629E-1
MEAN_MOTION_DDOT = 0

CCSDS_OMM_VERS = 2.0
CREATION_DATE  = 
ORIGINATOR     = 

OBJECT_NAME    = STARLINK-37010
OBJECT_ID      = 2026-055AD
CENTER_NAME    = EARTH
REF_FRAME      = TEME
TIME_SYSTEM    = UTC
MEAN_ELEMENT_THEORY = SGP/SGP4

EPOCH          = 2026-04-01T20:00:01.999008
MEAN_MOTION    = 15.85995562
ECCENTRICITY   = .0000846
INCLINATION    = 53.1575
RA_OF_ASC_NODE = 221.0983
ARG_OF_PERICENTER = 57.7797
MEAN_ANOMALY   = 343.3528

EPHEMERIS_TYPE = 0
CLASSIFICATION_TYPE = U
NORAD_CAT_ID   = 68289
ELEMENT_SET_NO = 999
REV_AT_EPOCH   = 335
BSTAR          = -.69611E-2
MEAN_MOTION_DOT = -.1543289E-1
MEAN_MOTION_DDOT = 0

CCSDS_OMM_VERS = 2.0
CREATION_DATE  = 
ORIGINATOR     = 

OBJECT_NAME    = STARLINK-37151
OBJECT_ID      = 2026-055AE
CENTER_NAME    = EARTH
REF_FRAME      = TEME
TIME_SYSTEM    = UTC
MEAN_ELEMENT_THEORY = SGP/SGP4

EPOCH          = 2026-04-01T20:00:01.999008
MEAN_MOTION    = 15.86090059
ECCENTRICITY   = .0000906
INCLINATION    = 53.1569
RA_OF_ASC_NODE = 221.0904
ARG_OF_PERICENTER = 62.0476
MEAN_ANOMALY   = 343.0419

EPHEMERIS_TYPE = 0
CLASSIFICATION_TYPE = U
NORAD_CAT_ID   = 68290
ELEMENT_SET_NO = 999
REV_AT_EPOCH   = 335
BSTAR          = -.7059E-2
MEAN_MOTION_DOT = -.1568777E-1
MEAN_MOTION_DDOT = 0

CCSDS_OMM_VERS = 2.0
CREATION_DATE  = 
ORIGINATOR     = 

OBJECT_NAME    = STRIX-6
OBJECT_ID      = 2026-056A
CENTER_NAME    = EARTH
REF_FRAME      = TEME
TIME_SYSTEM    = UTC
MEAN_ELEMENT_THEORY = SGP/SGP4

EPOCH          = 2026-04-01T20:15:29.223072
MEAN_MOTION    = 14.99654927
ECCENTRICITY   = .0016538
INCLINATION    = 50.2843
RA_OF_ASC_NODE = 350.5377
ARG_OF_PERICENTER = 311.4234
MEAN_ANOMALY   = 48.5293

EPHEMERIS_TYPE = 0
CLASSIFICATION_TYPE = U
NORAD_CAT_ID   = 68291
ELEMENT_SET_NO = 999
REV_AT_EPOCH   = 181
BSTAR          = .4389E-3
MEAN_MOTION_DOT = .5226E-4
MEAN_MOTION_DDOT = 0

CCSDS_OMM_VERS = 2.0
CREATION_DATE  = 
ORIGINATOR     = 

OBJECT_NAME    = ELECTRON KICK STAGE R/B
OBJECT_ID      = 2026-056C
CENTER_NAME    = EARTH
REF_FRAME      = TEME
TIME_SYSTEM    = UTC
MEAN_ELEMENT_THEORY = SGP/SGP4

EPOCH          = 2026-04-01T09:42:51.245856
MEAN_MOTION    = 15.40383024
ECCENTRICITY   = .0155041
INCLINATION    = 50.2914
RA_OF_ASC_NODE = 349.1674
ARG_OF_PERICENTER = 58.1304
MEAN_ANOMALY   = 303.4645

EPHEMERIS_TYPE = 0
CLASSIFICATION_TYPE = U
NORAD_CAT_ID   = 68293
ELEMENT_SET_NO = 999
REV_AT_EPOCH   = 180
BSTAR          = .14234E-2
MEAN_MOTION_DOT = .90799E-3
MEAN_MOTION_DDOT = 0

CCSDS_OMM_VERS = 2.0
CREATION_DATE  = 
ORIGINATOR     = 

OBJECT_NAME    = STARLINK-37107
OBJECT_ID      = 2026-057A
CENTER_NAME    = EARTH
REF_FRAME      = TEME
TIME_SYSTEM    = UTC
MEAN_ELEMENT_THEORY = SGP/SGP4

EPOCH          = 2026-04-01T20:00:01.999008
MEAN_MOTION    = 15.92008322
ECCENTRICITY   = .0001445
INCLINATION    = 97.2806
RA_OF_ASC_NODE = 215.2800
ARG_OF_PERICENTER = 81.9655
MEAN_ANOMALY   = 75.5878

EPHEMERIS_TYPE = 0
CLASSIFICATION_TYPE = U
NORAD_CAT_ID   = 68294
ELEMENT_SET_NO = 999
REV_AT_EPOCH   = 288
BSTAR          = -.41315E-2
MEAN_MOTION_DOT = -.1353435E-1
MEAN_MOTION_DDOT = .5274E-3

CCSDS_OMM_VERS = 2.0
CREATION_DATE  = 
ORIGINATOR     = 

OBJECT_NAME    = STARLINK-37147
OBJECT_ID      = 2026-057B
CENTER_NAME    = EARTH
REF_FRAME      = TEME
TIME_SYSTEM    = UTC
MEAN_ELEMENT_THEORY = SGP/SGP4

EPOCH          = 2026-04-01T20:00:01.999008
MEAN_MOTION    = 15.92082464
ECCENTRICITY   = .00015
INCLINATION    = 97.2801
RA_OF_ASC_NODE = 215.2810
ARG_OF_PERICENTER = 75.1011
MEAN_ANOMALY   = 85.9646

EPHEMERIS_TYPE = 0
CLASSIFICATION_TYPE = U
NORAD_CAT_ID   = 68295
ELEMENT_SET_NO = 999
REV_AT_EPOCH   = 287
BSTAR          = -.41331E-2
MEAN_MOTION_DOT = -.1359093E-1
MEAN_MOTION_DDOT = .53189E-3

CCSDS_OMM_VERS = 2.0
CREATION_DATE  = 
ORIGINATOR     = 

OBJECT_NAME    = STARLINK-37142
OBJECT_ID      = 2026-057C
CENTER_NAME    = EARTH
REF_FRAME      = TEME
TIME_SYSTEM    = UTC
MEAN_ELEMENT_THEORY = SGP/SGP4

EPOCH          = 2026-04-01T20:00:01.999008
MEAN_MOTION    = 15.92292557
ECCENTRICITY   = .0001491
INCLINATION    = 97.2795
RA_OF_ASC_NODE = 215.2858
ARG_OF_PERICENTER = 77.5962
MEAN_ANOMALY   = 95.0320

EPHEMERIS_TYPE = 0
CLASSIFICATION_TYPE = U
NORAD_CAT_ID   = 68296
ELEMENT_SET_NO = 999
REV_AT_EPOCH   = 276
BSTAR          = -.41555E-2
MEAN_MOTION_DOT = -.138107E-1
MEAN_MOTION_DDOT = .54906E-3

CCSDS_OMM_VERS = 2.0
CREATION_DATE  = 
ORIGINATOR     = 

OBJECT_NAME    = STARLINK-37115
OBJECT_ID      = 2026-057D
CENTER_NAME    = EARTH
REF_FRAME      = TEME
TIME_SYSTEM    = UTC
MEAN_ELEMENT_THEORY = SGP/SGP4

EPOCH          = 2026-04-01T20:00:01.999008
MEAN_MOTION    = 15.92211161
ECCENTRICITY   = .0001472
INCLINATION    = 97.2792
RA_OF_ASC_NODE = 215.2833
ARG_OF_PERICENTER = 77.5103
MEAN_ANOMALY   = 91.5008

EPHEMERIS_TYPE = 0
CLASSIFICATION_TYPE = U
NORAD_CAT_ID   = 68297
ELEMENT_SET_NO = 999
REV_AT_EPOCH   = 276
BSTAR          = -.41319E-2
MEAN_MOTION_DOT = -.1367627E-1
MEAN_MOTION_DDOT = .53878E-3

CCSDS_OMM_VERS = 2.0
CREATION_DATE  = 
ORIGINATOR     = 

OBJECT_NAME    = STARLINK-36355
OBJECT_ID      = 2026-057E
CENTER_NAME    = EARTH
REF_FRAME      = TEME
TIME_SYSTEM    = UTC
MEAN_ELEMENT_THEORY = SGP/SGP4

EPOCH          = 2026-04-01T20:00:01.999008
MEAN_MOTION    = 15.92147753
ECCENTRICITY   = .0001437
INCLINATION    = 97.2798
RA_OF_ASC_NODE = 215.2821
ARG_OF_PERICENTER = 85.5825
MEAN_ANOMALY   = 79.1432

EPHEMERIS_TYPE = 0
CLASSIFICATION_TYPE = U
NORAD_CAT_ID   = 68298
ELEMENT_SET_NO = 999
REV_AT_EPOCH   = 303
BSTAR          = -.40855E-2
MEAN_MOTION_DOT = -.1348028E-1
MEAN_MOTION_DDOT = .52424E-3

CCSDS_OMM_VERS = 2.0
CREATION_DATE  = 
ORIGINATOR     = 

OBJECT_NAME    = STARLINK-37118
OBJECT_ID      = 2026-057F
CENTER_NAME    = EARTH
REF_FRAME      = TEME
TIME_SYSTEM    = UTC
MEAN_ELEMENT_THEORY = SGP/SGP4

EPOCH          = 2026-04-01T20:00:01.999008
MEAN_MOTION    = 15.92419853
ECCENTRICITY   = .0001506
INCLINATION    = 97.2787
RA_OF_ASC_NODE = 215.2885
ARG_OF_PERICENTER = 79.5689
MEAN_ANOMALY   = 101.0638

EPHEMERIS_TYPE = 0
CLASSIFICATION_TYPE = U
NORAD_CAT_ID   = 68299
ELEMENT_SET_NO = 999
REV_AT_EPOCH   = 287
BSTAR          = -.41022E-2
MEAN_MOTION_DOT = -.1372426E-1
MEAN_MOTION_DDOT = .54342E-3

